NORAD_CAT_ID,OBJECT_NAME,OBJECT_TYPE,EPOCH,MEAN_MOTION,ECCENTRICITY,INCLINATION,RA_OF_ASC_NODE,ARG_OF_PERICENTER,MEAN_ANOMALY,BSTAR,MEAN_MOTION_DOT,MEAN_MOTION_DDOT,TLE_LINE0,TLE_LINE1,TLE_LINE2,SEMIMAJOR_AXIS,PERIOD,APOGEE,PERIGEE,DECAYED
51753.0,STARLINK-3507,PAYLOAD,2023-05-18 18:40:48,15.08840162,0.0001158,53.2164,234.6119,86.3229,273.7895,5.8446e-05,6.42e-06,0.0,0 STARLINK-3507,1 51753U 22016AR  23138.77834131  .00000642  00000-0  58446-4 0  9996,2 51753  53.2164 234.6119 0001158  86.3229 273.7895 15.08840162 68825,6917.88,95.438,540.546,538.944,0.0
51753.0,STARLINK-3507,PAYLOAD,2023-05-18 23:26:58,15.08823316,0.0001301,53.2178,233.7199,95.1397,264.9744,0.00030115,4.506e-05,0.0,0 STARLINK-3507,1 51753U 22016AR  23138.97706797  .00004506  00000-0  30115-3 0  9999,2 51753  53.2178 233.7199 0001301  95.1397 264.9744 15.08823316 69921,6917.931,95.439,540.696,538.896,0.0
51753.0,STARLINK-3507,PAYLOAD,2023-05-19 12:10:03,15.08842294,0.0001321,53.218,231.3402,87.0536,273.0607,0.00010351,1.36e-05,0.0,0 STARLINK-3507,1 51753U 22016AR  23139.50697948  .00001360  00000-0  10351-3 0  9991,2 51753  53.2180 231.3402 0001321  87.0536 273.0607 15.08842294 70008,6917.873,95.437,540.652,538.825,0.0
51753.0,STARLINK-3507,PAYLOAD,2023-05-20 12:00:49,15.08851137,0.0001197,53.216,226.8819,86.6114,273.5015,0.00011993,1.622e-05,0.0,0 STARLINK-3507,1 51753U 22016AR  23140.50057302  .00001622  00000-0  11993-3 0  9991,2 51753  53.2160 226.8819 0001197  86.6114 273.5015 15.08851137 69085,6917.846,95.437,540.539,538.883,0.0
51753.0,STARLINK-3507,PAYLOAD,2023-05-20 23:08:31,15.08852036,0.0001236,53.216,224.8006,72.4504,287.6623,0.00010253,1.345e-05,0.0,0 STARLINK-3507,1 51753U 22016AR  23140.96425019  .00001345  00000-0  10253-3 0  9995,2 51753  53.2160 224.8006 0001236  72.4504 287.6623 15.08852036 70229,6917.844,95.437,540.564,538.854,0.0
51753.0,STARLINK-3507,PAYLOAD,2023-05-21 05:30:03,15.08846434,0.000124,53.2158,223.6114,77.6169,282.4962,0.00010974,1.459e-05,0.0,0 STARLINK-3507,1 51753U 22016AR  23141.22921294  .00001459  00000-0  10974-3 0  9997,2 51753  53.2158 223.6114 0001240  77.6169 282.4962 15.08846434 70260,6917.861,95.437,540.584,538.868,0.0
51753.0,STARLINK-3507,PAYLOAD,2023-05-21 11:51:36,15.08845258,0.0001372,53.2161,222.422,65.3634,294.7501,4.9841e-05,5.05e-06,0.0,0 STARLINK-3507,1 51753U 22016AR  23141.49417470  .00000505  00000-0  49841-4 0  9999,2 51753  53.2161 222.4220 0001372  65.3634 294.7501 15.08845258 69239,6917.864,95.437,540.678,538.78,0.0
51753.0,STARLINK-3507,PAYLOAD,2023-05-21 22:59:18,15.08840869,0.0001314,53.2164,220.3411,71.4466,288.6669,5.3663e-06,-2.02e-06,0.0,0 STARLINK-3507,1 51753U 22016AR  23141.95785723 -.00000202  00000-0  53663-5 0  9992,2 51753  53.2164 220.3411 0001314  71.4466 288.6669 15.08840869 70375,6917.878,95.437,540.652,538.834,0.0
51753.0,STARLINK-3507,PAYLOAD,2023-05-22 11:42:24,15.08834507,0.0001152,53.2167,217.96,85.9155,274.1969,6.6784e-06,-1.82e-06,0.0,0 STARLINK-3507,1 51753U 22016AR  23142.48778132 -.00000182  00000-0  66784-5 0  9992,2 51753  53.2167 217.9600 0001152  85.9155 274.1969 15.08834507 69389,6917.897,95.438,540.559,538.965,0.0
51753.0,STARLINK-3507,PAYLOAD,2023-05-23 21:05:30,15.08833521,0.0001268,53.217,211.7163,84.8941,275.2196,3.8031e-05,3.17e-06,0.0,0 STARLINK-3507,1 51753U 22016AR  23143.87882482  .00000317  00000-0  38031-4 0  9992,2 51753  53.2170 211.7163 0001268  84.8941 275.2196 15.08833521 69590,6917.9,95.438,540.642,538.888,0.0
51753.0,STARLINK-3507,PAYLOAD,2023-05-24 05:02:26,15.08833544,0.0001136,53.2164,210.2288,81.2754,278.8367,0.0001142,1.53e-05,0.0,0 STARLINK-3507,1 51753U 22016AR  23144.21002362  .00001530  00000-0  11420-3 0  9992,2 51753  53.2164 210.2288 0001136  81.2754 278.8367 15.08833544 70712,6917.9,95.438,540.551,538.979,0.0
51753.0,STARLINK-3507,PAYLOAD,2023-05-24 08:13:12,15.08834418,0.0001143,53.2164,209.6342,81.2066,278.9055,0.0001158,1.555e-05,0.0,0 STARLINK-3507,1 51753U 22016AR  23144.34250345  .00001555  00000-0  11580-3 0  9996,2 51753  53.2164 209.6342 0001143  81.2066 278.9055 15.08834418 69667,6917.897,95.438,540.553,538.972,0.0
51753.0,STARLINK-3507,PAYLOAD,2023-05-25 23:57:51,15.08838023,0.0001189,53.217,202.2025,95.6035,264.5093,5.6062e-06,-1.99e-06,0.0,0 STARLINK-3507,1 51753U 22016AR  23145.99850918 -.00000199  00000-0  56062-5 0  9990,2 51753  53.2170 202.2025 0001189  95.6035 264.5093 15.08838023 70982,6917.886,95.438,540.574,538.929,0.0
51753.0,STARLINK-3507,PAYLOAD,2023-05-26 12:40:56,15.08838537,0.0001147,53.216,199.8212,87.1319,272.9805,2.2772e-06,-2.52e-06,0.0,0 STARLINK-3507,1 51753U 22016AR  23146.52842943 -.00000252  00000-0  22772-5 0  9990,2 51753  53.2160 199.8212 0001147  87.1319 272.9805 15.08838537 69998,6917.885,95.438,540.543,538.956,0.0
51753.0,STARLINK-3507,PAYLOAD,2023-05-27 10:56:19,15.08843084,0.0001118,53.2159,195.6578,85.1899,274.922,7.1272e-05,8.47e-06,0.0,0 STARLINK-3507,1 51753U 22016AR  23147.45578428  .00000847  00000-0  71272-4 0  9994,2 51753  53.2159 195.6578 0001118  85.1899 274.9220 15.08843084 71207,6917.871,95.437,540.509,538.963,0.0
51753.0,STARLINK-3507,PAYLOAD,2023-05-27 20:28:38,15.08840632,0.000113,53.2157,193.8743,82.1278,277.9842,6.42e-05,7.34e-06,0.0,0 STARLINK-3507,1 51753U 22016AR  23147.85322586  .00000734  00000-0  64200-4 0  9998,2 51753  53.2157 193.8743 0001130  82.1278 277.9842 15.08840632 70197,6917.878,95.438,540.525,538.962,0.0
51753.0,STARLINK-3507,PAYLOAD,2023-05-28 12:22:29,15.08842665,0.0001149,53.2158,190.8998,87.0484,273.064,5.9273e-05,6.56e-06,0.0,0 STARLINK-3507,1 51753U 22016AR  23148.51562493  .00000656  00000-0  59273-4 0  9992,2 51753  53.2158 190.8998 0001149  87.0484 273.0640 15.08842665 71361,6917.872,95.437,540.532,538.942,0.0
51753.0,STARLINK-3507,PAYLOAD,2023-05-29 09:02:30,15.08842119,0.0001183,53.2157,187.0341,86.5986,273.5141,1.23e-06,-2.68e-06,0.0,0 STARLINK-3507,1 51753U 22016AR  23149.37674623 -.00000268  00000-0  12300-5 0  9997,2 51753  53.2157 187.0341 0001183  86.5986 273.5141 15.08842119 70420,6917.874,95.437,540.557,538.921,0.0
51753.0,STARLINK-3507,PAYLOAD,2023-05-30 08:53:18,15.0883781,0.00013,53.2162,182.5737,99.2065,260.9075,3.878e-06,-2.26e-06,0.0,0 STARLINK-3507,1 51753U 22016AR  23150.37034816 -.00000226  00000-0  38780-5 0  9997,2 51753  53.2162 182.5737 0001300  99.2065 260.9075 15.08837810 71648,6917.887,95.438,540.651,538.853,0.0
51753.0,STARLINK-3507,PAYLOAD,2023-05-30 12:04:04,15.0883795,0.000129,53.2161,181.9787,98.4117,261.7022,6.2888e-06,-1.88e-06,0.0,0 STARLINK-3507,1 51753U 22016AR  23150.50282815 -.00000188  00000-0  62888-5 0  9999,2 51753  53.2161 181.9787 0001290  98.4117 261.7022 15.08837950 70591,6917.887,95.438,540.644,538.859,0.0
51753.0,STARLINK-3507,PAYLOAD,2023-05-31 08:44:05,15.0883886,0.0001294,53.216,178.113,97.6691,262.4448,3.065e-05,2e-06,0.0,0 STARLINK-3507,1 51753U 22016AR  23151.36394780  .00000200  00000-0  30650-4 0  9994,2 51753  53.2160 178.1130 0001294  97.6691 262.4448 15.08838860 70728,6917.884,95.438,540.644,538.854,0.0
51753.0,STARLINK-3507,PAYLOAD,2023-05-31 18:16:24,15.08836599,0.0001218,53.2159,176.3291,93.9929,266.1202,3.3229e-05,2.41e-06,0.0,0 STARLINK-3507,1 51753U 22016AR  23151.76138954  .00000241  00000-0  33229-4 0  9997,2 51753  53.2159 176.3291 0001218  93.9929 266.1202 15.08836599 71854,6917.891,95.438,540.598,538.913,0.0
51753.0,STARLINK-3507,PAYLOAD,2023-06-01 06:59:29,15.08836947,0.0001221,53.2157,173.9509,101.8826,258.2303,1.3981e-05,-6.5e-07,0.0,0 STARLINK-3507,1 51753U 22016AR  23152.29131114 -.00000065  00000-0  13981-4 0  9995,2 51753  53.2157 173.9509 0001221 101.8826 258.2303 15.08836947 70867,6917.89,95.438,540.599,538.91,0.0
51753.0,STARLINK-3507,PAYLOAD,2023-06-02 02:04:07,15.08836739,0.0001168,53.2156,170.3825,90.4324,269.6802,1.4329e-05,-6e-07,0.0,0 STARLINK-3507,1 51753U 22016AR  23153.08619318 -.00000060  00000-0  14329-4 0  9992,2 51753  53.2156 170.3825 0001168  90.4324 269.6802 15.08836739 72056,6917.89,95.438,540.563,538.947,0.0
51753.0,STARLINK-3507,PAYLOAD,2023-06-02 08:25:39,15.08843926,0.0001423,53.2164,169.1944,115.8669,244.247,3.4771e-05,2.66e-06,0.0,0 STARLINK-3507,1 51753U 22016AR  23153.35114788  .00000266  00000-0  34771-4 0  9993,2 51753  53.2164 169.1944 0001423 115.8669 244.2470 15.08843926 72091,6917.868,95.437,540.718,538.749,0.0
51753.0,STARLINK-3507,PAYLOAD,2023-06-02 17:57:58,15.0883605,0.000172,53.2166,167.4101,75.019,285.0992,-6.0056e-05,-1.244e-05,0.0,0 STARLINK-3507,1 51753U 22016AR  23153.74859890 -.00001244  00000-0 -60056-4 0  9990,2 51753  53.2166 167.4101 0001720  75.0190 285.0992 15.08836050 72154,6917.892,95.438,540.947,538.568,0.0
51753.0,STARLINK-3507,PAYLOAD,2023-06-03 09:51:50,15.08835518,0.0001164,53.2155,164.4346,85.3075,274.805,2.9911e-05,1.88e-06,0.0,0 STARLINK-3507,1 51753U 22016AR  23154.41099671  .00000188  00000-0  29911-4 0  9997,2 51753  53.2155 164.4346 0001164  85.3075 274.8050 15.08835518 71189,6917.894,95.438,540.564,538.954,0.0
51753.0,STARLINK-3507,PAYLOAD,2023-06-03 17:48:45,15.08837566,0.0001144,53.2157,162.9479,85.7955,274.3168,4.0559e-05,3.58e-06,0.0,0 STARLINK-3507,1 51753U 22016AR  23154.74219543  .00000358  00000-0  40559-4 0  9995,2 51753  53.2157 162.9479 0001144  85.7955 274.3168 15.08837566 71236,6917.888,95.438,540.544,538.961,0.0
51753.0,STARLINK-3507,PAYLOAD,2023-06-04 09:42:36,15.08839962,0.0001155,53.2157,159.9742,88.3272,271.7853,5.8983e-05,6.51e-06,0.0,0 STARLINK-3507,1 51753U 22016AR  23155.40459378  .00000651  00000-0  58983-4 0  9997,2 51753  53.2157 159.9742 0001155  88.3272 271.7853 15.08839962 71333,6917.881,95.438,540.545,538.946,0.0
51753.0,STARLINK-3507,PAYLOAD,2023-06-05 04:47:14,15.08840706,0.0001147,53.2158,156.4056,84.5301,275.5822,7.2795e-05,8.71e-06,0.0,0 STARLINK-3507,1 51753U 22016AR  23156.19947227  .00000871  00000-0  72795-4 0  9990,2 51753  53.2158 156.4056 0001147  84.5301 275.5822 15.08840706 72524,6917.878,95.438,540.537,538.95,0.0
